NORAD_CAT_ID,OBJECT_NAME,OBJECT_TYPE,EPOCH,MEAN_MOTION,ECCENTRICITY,INCLINATION,RA_OF_ASC_NODE,ARG_OF_PERICENTER,MEAN_ANOMALY,BSTAR,MEAN_MOTION_DOT,MEAN_MOTION_DDOT,TLE_LINE0,TLE_LINE1,TLE_LINE2,SEMIMAJOR_AXIS,PERIOD,APOGEE,PERIGEE,DECAYED
53001.0,STARLINK-4190,PAYLOAD,2024-07-03 16:36:08,15.08842267,0.0001125,53.2164,330.4663,91.7805,268.3316,0.0001899,2.736e-05,0.0,0 STARLINK-4190,1 53001U 22076R   24185.69176802  .00002736  00000-0  18990-3 0  9993,2 53001  53.2164 330.4663 0001125  91.7805 268.3316 15.08842267110628,6917.873,95.437,540.517,538.96,0.0
53001.0,STARLINK-4190,PAYLOAD,2024-07-04 02:08:27,15.08854452,0.0001085,53.2163,328.6819,91.3518,268.7599,0.00037991,5.766e-05,0.0,0 STARLINK-4190,1 53001U 22076R   24186.08920221  .00005766  00000-0  37991-3 0  9997,2 53001  53.2163 328.6819 0001085  91.3518 268.7599 15.08854452110683,6917.836,95.437,540.452,538.951,0.0
53001.0,STARLINK-4190,PAYLOAD,2024-07-04 13:16:09,15.08837791,0.0001208,53.2164,326.6038,99.8468,260.266,5.8568e-05,6.44e-06,0.0,0 STARLINK-4190,1 53001U 22076R   24186.55288949  .00000644  00000-0  58568-4 0  9997,2 53001  53.2164 326.6038 0001208  99.8468 260.2660 15.08837791110750,6917.887,95.438,540.588,538.916,0.0
53001.0,STARLINK-4190,PAYLOAD,2024-07-04 14:51:32,15.08839725,0.0001205,53.2167,326.3066,100.1341,259.9787,0.00010112,1.322e-05,0.0,0 STARLINK-4190,1 53001U 22076R   24186.61912911  .00001322  00000-0  10112-3 0  9993,2 53001  53.2167 326.3066 0001205 100.1341 259.9787 15.08839725110297,6917.881,95.438,540.58,538.913,0.0
53001.0,STARLINK-4190,PAYLOAD,2024-07-04 16:26:55,15.0884411,0.0001212,53.2173,326.0098,101.6496,258.4632,0.00019097,2.753e-05,0.0,0 STARLINK-4190,1 53001U 22076R   24186.68536742  .00002753  00000-0  19097-3 0  9994,2 53001  53.2173 326.0098 0001212 101.6496 258.4632 15.08844110110300,6917.868,95.437,540.571,538.894,0.0
53001.0,STARLINK-4190,PAYLOAD,2024-07-05 01:59:14,15.08860119,0.0001282,53.2177,324.2254,104.4629,255.6506,0.00079944,0.00012465,0.0,0 STARLINK-4190,1 53001U 22076R   24187.08280298  .00012465  00000-0  79944-3 0  9999,2 53001  53.2177 324.2254 0001282 104.4629 255.6506 15.08860119110838,6917.819,95.436,540.571,538.797,0.0
53001.0,STARLINK-4190,PAYLOAD,2024-07-05 13:06:56,15.08842515,0.0001188,53.2172,322.1438,97.5783,262.5345,0.00018349,2.634e-05,0.0,0 STARLINK-4190,1 53001U 22076R   24187.54648669  .00002634  00000-0  18349-3 0  9999,2 53001  53.2172 322.1438 0001188  97.5783 262.5345 15.08842515110908,6917.873,95.437,540.56,538.916,0.0
53001.0,STARLINK-4190,PAYLOAD,2024-07-05 14:42:19,15.08842863,0.000124,53.2172,321.8464,96.7975,263.3159,0.00046749,7.161e-05,0.0,0 STARLINK-4190,1 53001U 22076R   24187.61272678  .00007161  00000-0  46749-3 0  9995,2 53001  53.2172 321.8464 0001240  96.7975 263.3159 15.08842863110443,6917.872,95.437,540.594,538.879,0.0
53001.0,STARLINK-4190,PAYLOAD,2024-07-05 16:17:42,15.08847552,0.000114,53.2171,321.5487,93.8535,266.2587,0.00065758,0.00010195,0.0,0 STARLINK-4190,1 53001U 22076R   24187.67896611  .00010195  00000-0  65758-3 0  9992,2 53001  53.2171 321.5487 0001140  93.8535 266.2587 15.08847552110451,6917.857,95.437,540.511,538.934,0.0
53001.0,STARLINK-4190,PAYLOAD,2024-07-06 01:50:01,15.08868067,0.0001113,53.217,319.764,74.9962,285.1154,0.0015869,0.00025077,0.0,0 STARLINK-4190,1 53001U 22076R   24188.07640194  .00025077  00000-0  15869-2 0  9992,2 53001  53.2170 319.7640 0001113  74.9962 285.1154 15.08868067110986,6917.795,95.436,540.43,538.89,0.0
53001.0,STARLINK-4190,PAYLOAD,2024-07-06 12:57:43,15.08827707,0.0001346,53.2163,317.6827,86.9736,273.1411,0.0007573,0.00011781,0.0,0 STARLINK-4190,1 53001U 22076R   24188.54009026  .00011781  00000-0  75730-3 0  9998,2 53001  53.2163 317.6827 0001346  86.9736 273.1411 15.08827707111050,6917.918,95.438,540.714,538.852,0.0
53001.0,STARLINK-4190,PAYLOAD,2024-07-06 14:33:06,15.0882607,0.0001299,53.2164,317.3855,84.7806,275.3335,0.00094495,0.00014777,0.0,0 STARLINK-4190,1 53001U 22076R   24188.60633101  .00014777  00000-0  94495-3 0  9999,2 53001  53.2164 317.3855 0001299  84.7806 275.3335 15.08826070110599,6917.923,95.438,540.687,538.889,0.0
53001.0,STARLINK-4190,PAYLOAD,2024-07-06 17:43:53,15.0882963,0.0001299,53.2163,316.7909,81.6459,278.468,0.0014676,0.00023139,0.0,0 STARLINK-4190,1 53001U 22076R   24188.73881207  .00023139  00000-0  14676-2 0  9999,2 53001  53.2163 316.7909 0001299  81.6459 278.4680 15.08829630110616,6917.912,95.438,540.676,538.878,0.0
53001.0,STARLINK-4190,PAYLOAD,2024-07-07 08:02:21,15.08843121,0.0001292,53.2176,314.1147,103.0646,257.0491,0.00098116,0.00015363,0.0,0 STARLINK-4190,1 53001U 22076R   24189.33497404  .00015363  00000-0  98116-3 0  9990,2 53001  53.2176 314.1147 0001292 103.0646 257.0491 15.08843121110700,6917.871,95.437,540.63,538.842,0.0
53001.0,STARLINK-4190,PAYLOAD,2024-07-07 17:34:40,15.08849569,0.0001367,53.2166,312.3307,82.954,277.1607,0.00088162,0.00013774,0.0,0 STARLINK-4190,1 53001U 22076R   24189.73241470  .00013774  00000-0  88162-3 0  9998,2 53001  53.2166 312.3307 0001367  82.9540 277.1607 15.08849569111231,6917.851,95.437,540.662,538.77,0.0
53001.0,STARLINK-4190,PAYLOAD,2024-07-08 12:39:18,15.0884401,0.0001335,53.2164,308.7628,89.4858,270.6287,0.00025172,3.721e-05,0.0,0 STARLINK-4190,1 53001U 22076R   24190.52729356  .00003721  00000-0  25172-3 0  9994,2 53001  53.2164 308.7628 0001335  89.4858 270.6287 15.08844010111354,6917.868,95.437,540.657,538.81,0.0
53001.0,STARLINK-4190,PAYLOAD,2024-07-08 14:14:41,15.08846416,0.0001261,53.2157,308.4637,99.1445,260.969,0.00035322,5.339e-05,0.0,0 STARLINK-4190,1 53001U 22076R   24190.59353251  .00005339  00000-0  35322-3 0  9993,2 53001  53.2157 308.4637 0001261  99.1445 260.9690 15.08846416110891,6917.861,95.437,540.598,538.853,0.0
53001.0,STARLINK-4190,PAYLOAD,2024-07-09 14:05:28,15.08839733,0.0001452,53.2159,304.0029,94.8494,265.2664,0.00023206,3.407e-05,0.0,0 STARLINK-4190,1 53001U 22076R   24191.58713261  .00003407  00000-0  23206-3 0  9996,2 53001  53.2159 304.0029 0001452  94.8494 265.2664 15.08839733111511,6917.881,95.438,540.751,538.742,0.0
53001.0,STARLINK-4190,PAYLOAD,2024-07-10 13:56:15,15.08843004,0.0001593,53.2169,299.5425,95.413,264.7044,0.00035565,5.377e-05,0.0,0 STARLINK-4190,1 53001U 22076R   24192.58073476  .00005377  00000-0  35565-3 0  9993,2 53001  53.2169 299.5425 0001593  95.4130 264.7044 15.08843004111196,6917.871,95.437,540.838,538.634,0.0
53001.0,STARLINK-4190,PAYLOAD,2024-07-11 12:11:39,15.08843247,0.0001527,53.2161,295.3792,95.5164,264.6002,0.00019912,2.883e-05,0.0,0 STARLINK-4190,1 53001U 22076R   24193.50809428  .00002883  00000-0  19912-3 0  9997,2 53001  53.2161 295.3792 0001527  95.5164 264.6002 15.08843247111332,6917.87,95.437,540.792,538.679,0.0
53001.0,STARLINK-4190,PAYLOAD,2024-07-11 16:57:48,15.08843872,0.0001472,53.2158,294.4867,94.2934,265.8226,0.00015967,2.254e-05,0.0,0 STARLINK-4190,1 53001U 22076R   24193.70681338  .00002254  00000-0  15967-3 0  9995,2 53001  53.2158 294.4867 0001472  94.2934 265.8226 15.08843872111831,6917.869,95.437,540.752,538.715,0.0
53001.0,STARLINK-4190,PAYLOAD,2024-07-12 13:37:49,15.08835504,0.0001297,53.2155,290.6216,93.958,266.1561,4.119e-06,-2.22e-06,0.0,0 STARLINK-4190,1 53001U 22076R   24194.56793717 -.00000222  00000-0  41190-5 0  9998,2 53001  53.2155 290.6216 0001297  93.9580 266.1561 15.08835504111965,6917.894,95.438,540.656,538.862,0.0
53001.0,STARLINK-4190,PAYLOAD,2024-07-13 13:28:36,15.08839719,0.0001556,53.2174,286.162,91.9998,268.1173,8.1331e-05,1.007e-05,0.0,0 STARLINK-4190,1 53001U 22076R   24195.56153911  .00001007  00000-0  81331-4 0  9996,2 53001  53.2174 286.1620 0001556  91.9998 268.1173 15.08839719111642,6917.881,95.438,540.823,538.67,0.0
53001.0,STARLINK-4190,PAYLOAD,2024-07-13 15:04:00,15.08841094,0.0001613,53.2178,285.8645,94.3778,265.7399,9.3578e-05,1.202e-05,0.0,0 STARLINK-4190,1 53001U 22076R   24195.62777816  .00001202  00000-0  93578-4 0  9992,2 53001  53.2178 285.8645 0001613  94.3778 265.7399 15.08841094112122,6917.877,95.437,540.858,538.626,0.0
53001.0,STARLINK-4190,PAYLOAD,2024-07-13 23:00:55,15.0884912,0.0001413,53.2171,284.378,89.7377,270.3777,0.00013249,1.822e-05,0.0,0 STARLINK-4190,1 53001U 22076R   24195.95897201  .00001822  00000-0  13249-3 0  9993,2 53001  53.2171 284.3780 0001413  89.7377 270.3777 15.08849120112175,6917.853,95.437,540.695,538.74,0.0
53001.0,STARLINK-4190,PAYLOAD,2024-07-14 13:19:24,15.08837196,0.0001508,53.2161,281.702,88.1035,272.013,0.00013623,1.881e-05,0.0,0 STARLINK-4190,1 53001U 22076R   24196.55514126  .00001881  00000-0  13623-3 0  9993,2 53001  53.2161 281.7020 0001508  88.1035 272.0130 15.08837196112263,6917.889,95.438,540.797,538.711,0.0
53001.0,STARLINK-4190,PAYLOAD,2024-07-14 22:51:42,15.08851726,0.0001624,53.2164,279.9163,82.8237,277.294,0.00014783,2.066e-05,0.0,0 STARLINK-4190,1 53001U 22076R   24196.95257140  .00002066  00000-0  14783-3 0  9991,2 53001  53.2164 279.9163 0001624  82.8237 277.2940 15.08851726112325,6917.845,95.437,540.833,538.586,0.0
53001.0,STARLINK-4190,PAYLOAD,2024-07-15 13:10:11,15.08839896,0.0001638,53.2165,277.2382,85.9444,274.1735,3.2869e-05,2.35e-06,0.0,0 STARLINK-4190,1 53001U 22076R   24197.54874242  .00000235  00000-0  32869-4 0  9997,2 53001  53.2165 277.2382 0001638  85.9444 274.1735 15.08839896112411,6917.881,95.438,540.879,538.613,0.0
53001.0,STARLINK-4190,PAYLOAD,2024-07-15 22:42:29,15.08848493,0.0001658,53.2163,275.456,86.4537,273.6644,8.209e-05,1.019e-05,0.0,0 STARLINK-4190,1 53001U 22076R   24197.94617449  .00001019  00000-0  82090-4 0  9997,2 53001  53.2163 275.4560 0001658  86.4537 273.6644 15.08848493112009,6917.854,95.437,540.866,538.572,0.0
53001.0,STARLINK-4190,PAYLOAD,2024-07-16 11:25:34,15.08843378,0.000152,53.2153,273.0755,107.6048,252.511,6.0027e-05,6.68e-06,0.0,0 STARLINK-4190,1 53001U 22076R   24198.47609682  .00000668  00000-0  60027-4 0  9991,2 53001  53.2153 273.0755 0001520 107.6048 252.5110 15.08843378112088,6917.87,95.437,540.787,538.684,0.0
